[{"OBJECT_NAME":"GUOWANG TEST OBJECT C","OBJECT_ID":"2026-078C","EPOCH":"2026-04-14T06:16:43.226688","MEAN_MOTION":14.61708711,"ECCENTRICITY":0.04448823,"INCLINATION":86.6408,"RA_OF_ASC_NODE":304.8619,"ARG_OF_PERICENTER":17.1657,"MEAN_ANOMALY":344.4058,"EPHEMERIS_TYPE":0,"CLASSIFICATION_TYPE":"U","NORAD_CAT_ID":68690,"ELEMENT_SET_NO":999,"REV_AT_EPOCH":39,"BSTAR":0.00023175974,"MEAN_MOTION_DOT":5.11e-5,"MEAN_MOTION_DDOT":0}]
